COSMOS 2463             
1 36519U 10017A   21222.92250738  .00000017  00000-0  26622-5 0  9999
2 36519  82.9607 110.9115 0036619   6.6280 353.5354 13.71458153565229
ASTRA 3B                
1 36581U 10021A   21222.82697368  .00000134  00000-0  00000-0 0  9993
2 36581   0.0370  48.5029 0003940  94.6301 137.5670  1.00270688 41110
COMSATBW-2              
1 36582U 10021B   21222.82488003  .00000086  00000-0  00000-0 0  9994
2 36582   0.0209  92.5752 0002267  64.8974 112.1692  1.00272324 41190
NAVSTAR 65 (USA 213)    
1 36585U 10022A   21220.01603177  .00000027  00000-0  00000-0 0  9993
2 36585  55.0082 280.1620 0096328  54.8809 309.8809  2.00573311 82010
BADR-5                  
1 36592U 10025A   21222.32480729  .00000142  00000-0  00000-0 0  9994
2 36592   0.0418 113.4857 0005053  39.9325 308.4944  1.00272744 35459
SJ-12                   
1 36596U 10027A   21222.90437895  .00000532  00000-0  51163-4 0  9993
2 36596  97.6883 210.0387 0011495 359.9940   0.1279 14.97025219608533
TANDEM-X                
1 36605U 10030A   21222.00953318  .00000693  00000-0  36165-4 0  9995
2 36605  97.4460 229.0621 0001989  73.8134 306.4666 15.19154893617581
COMS 1                  
1 36744U 10032A   21222.84782307 -.00000347  00000-0  00000-0 0  9993
2 36744   0.3462  95.6453 0000756  49.6172 247.6419  1.00271227 33326
ARABSAT-5A              
1 36745U 10032B   21222.82836946  .00000151  00000-0  00000-0 0  9993
2 36745   0.0547  37.6533 0004990 116.2186 134.3206  1.00269830 40885
ECHOSTAR 15             
1 36792U 10034A   21222.80996269 -.00000284  00000-0  00000-0 0  9998
2 36792   0.0194 259.1999 0001582 224.9568  65.2896  1.00267198 40575
CARTOSAT-2B             
1 36795U 10035A   21222.78316801  .00000037  00000-0  12189-4 0  9997
2 36795  97.9979 280.8187 0014204 162.6302 197.5391 14.78651332598150
AISSAT 1                
1 36797U 10035C   21222.71815303  .00000183  00000-0  27370-4 0  9993
2 36797  98.2222  30.5411 0012417  99.7665 260.4952 14.86534697600276
ALSAT 2A                
1 36798U 10035D   21222.79448966  .00035796  00000-0  61192-2 0  9995
2 36798  97.9104 269.2280 0002669  77.8871 282.2502 14.68741659593240
TISAT 1                 
1 36799U 10035E   21222.78197172  .00000220  00000-0  27885-4 0  9992
2 36799  98.2053  55.7973 0013028  40.6841 319.5347 14.91808764601430
BEIDOU 5                
1 36828U 10036A   21222.81841346 -.00000121  00000-0  00000-0 0  9996
2 36828  54.1824 179.0994 0023074 182.9950 358.1104  1.00288982 40466
NILESAT 201             
1 36830U 10037A   21222.82086716 -.00000060  00000-0  00000-0 0  9995
2 36830   0.0451 186.6009 0005678 303.4834 117.9415  1.00271102 40605
RASCOM-QAF 1R           
1 36831U 10037B   21222.82287359  .00000016  00000-0  00000-0 0  9992
2 36831   0.0199 112.1103 0004565  34.0421 112.4718  1.00271933 40537
YAOGAN 10               
1 36834U 10038A   21222.84594066  .00000044  00000-0  12493-4 0  9998
2 36834  97.9794 230.0907 0001748  82.7862 277.3549 14.81062918594808
AEHF-1 (USA 214)        
1 36868U 10039A   21222.82304807  .00000022  00000-0  00000-0 0  9999
2 36868   3.7554  91.0460 0006743  24.3338 144.2935  1.00271450 35893
TIANHUI 1               
1 36985U 10040A   21222.84675207  .00000797  00000-0  34196-4 0  9994
2 36985  97.7051  65.6580 0029707 312.5878 173.8830 15.25569257609777
COSMOS 2464 [GLONASS-M] 
1 37139U 10041C   21222.60003624  .00000073  00000-0  00000-0 0  9999
2 37139  64.0473 251.2837 0026404   6.0791 207.2217  2.13100788 85123
CHINASAT 6A (ZX 6A)     
1 37150U 10042A   21221.98591367 -.00000356  00000-0  00000-0 0  9994
2 37150   0.0347 124.1076 0001210 335.4242 339.1697  1.00273780 40134
COSMOS 2467             
1 37152U 10043A   21222.72754464  .00000015  00000-0  37895-4 0  9996
2 37152  82.4555  93.0775 0002413  54.1679 305.9622 12.42902070495486
STRELA 3                
1 37153U 10043B   21222.76667328  .00000013  00000-0  24343-4 0  9995
2 37153  82.4572 101.8355 0007443 338.0125  22.0633 12.40741667494755
COSMOS 2468             
1 37154U 10043C   21222.68488224  .00000024  00000-0  10450-3 0  9998
2 37154  82.4595  91.3560 0013306 210.4848 149.5459 12.43665507495733
QZS-1 (MICHIBIKI-1)     
1 37158U 10045A   21221.74163671 -.00000173  00000-0  00000-0 0  9999
2 37158  42.0128 137.7210 0763240 270.9219 315.3635  1.00252986 39962
YAOGAN 11               
1 37165U 10047A   21222.86558486  .00000075  00000-0  18732-4 0  9990
2 37165  98.3134 346.2356 0039680 141.6469 218.7573 14.76351212586305
ZHEDA PIXING 1B         
1 37166U 10047B   21222.80229745  .00000166  00000-0  27869-4 0  9990
2 37166  97.7175 203.7096 0022989 330.2582  29.7324 14.81109675587853
ZHEDA PIXING 1C         
1 37167U 10047C   21222.79169730  .00000157  00000-0  26835-4 0  9998
2 37167  97.7472 200.5837 0022570 330.6180  29.3764 14.80981747587813
SBSS (USA 216)          
1 37168U 10048A   21222.87551019  .00000035  00000-0  11018-4 0  9996
2 37168  97.8572  83.2681 0001809  60.2474 356.3167 14.81664889587695
SJ-6G                   
1 37179U 10051A   21222.87101366  .00000781  00000-0  78429-4 0  9995
2 37179  97.7266 205.8070 0013149  76.8099 283.4579 14.94022980590983
SJ-6H                   
1 37180U 10051B   21222.78465680  .00000524  00000-0  55114-4 0  9990
2 37180  97.7342 205.1229 0013600  95.7031 264.5750 14.93490687590889
XM-5                    
1 37185U 10053A   21222.30291106 -.00000207  00000-0  00000-0 0  9994
2 37185   0.0221 183.1263 0001144  49.4578 110.3390  1.00268813 39718
GLOBALSTAR M079         
1 37188U 10054A   21222.87358128 -.00000091  00000-0  71889-4 0  9996
2 37188  52.0040 100.8387 0000858  56.3572  24.7753 12.62266670498856
GLOBALSTAR M074         
1 37189U 10054B   21222.81251216 -.00000094  00000-0  55669-4 0  9992
2 37189  52.0016 100.5658 0000858  52.1819 351.5239 12.62264989499454
GLOBALSTAR M076         
1 37190U 10054C   21222.83960213 -.00000102  00000-0  97813-5 0  9998
2 37190  52.0034 100.5233 0001057  80.7152 327.1453 12.62267255499179
GLOBALSTAR M077         
1 37191U 10054D   21222.83150490 -.00000108  00000-0 -22966-4 0  9990
2 37191  52.0079  57.0002 0000858  78.1331 352.8088 12.62263938499541
GLOBALSTAR M075         
1 37192U 10054E   21222.84752064 -.00000093  00000-0  57688-4 0  9998
2 37192  51.9942 143.5359 0000644  53.2587 330.3245 12.62266566498405
GLOBALSTAR M073         
1 37193U 10054F   21222.86010257 -.00000104  00000-0 -27717-5 0  9997
2 37193  52.0067  56.2509 0000870  78.1354   1.7101 12.62267497500231
BSAT-3B                 
1 37207U 10056B   21222.87693262 -.00000353  00000-0  00000-0 0  9995
2 37207   0.0869 298.5572 0000537 319.8686 126.6802  1.00270478 34379
BEIDOU 6                
1 37210U 10057A   21222.85419130 -.00000114  00000-0  00000-0 0  9993
2 37210   0.9292  52.8424 0005822 128.5788 245.6891  1.00272322 39521
FENGYUN 3B              
1 37214U 10059A   21222.86917065  .00000005  00000-0  25981-4 0  9997
2 37214  99.0816 218.0146 0017342 156.3349 203.8624 14.15994216557039
COSMO-SKYMED 4          
1 37216U 10060A   21222.96722143  .00000019  00000-0  89116-5 0  9999
2 37216  97.8909  46.0831 0001600  77.3693 282.7699 14.82155938582269
SKYTERRA 1              
1 37218U 10061A   21222.64243823 -.00000119  00000-0  00000-0 0  9992
2 37218   2.1803  19.6492 0001727 155.1122 274.5702  1.00272369 39438
ZHONGXING-20A           
1 37234U 10064A   21222.48858554 -.00000354  00000-0  00000-0 0  9999
2 37234   1.8742  92.1350 0003231  36.2187 133.0386  1.00267074 39260
HYLAS 1                 
1 37237U 10065A   21222.78213442 -.00000125  00000-0  00000-0 0  9993
2 37237   1.1392  93.4802 0001879  42.0664 264.2370  1.00272513 39213
INTELSAT 17 (IS-17)     
1 37238U 10065B   21222.88843785 -.00000004  00000-0  00000-0 0  9990
2 37238   0.0206 136.1077 0002764  14.1282 195.1599  1.00272382 35489
BEIDOU 7                
1 37256U 10068A   21222.58494100 -.00000186  00000-0  00000-0 0  9994
2 37256  50.7689 293.3516 0092105 217.7782 136.0328  1.00296074 39026
EUTELSAT KA-SAT 9A      
1 37258U 10069A   21222.75229973  .00000059  00000-0  00000-0 0  9998
2 37258   0.0887 270.8415 0005860 212.8609 115.5508  1.00270804 26245
HISPASAT 30W-5          
1 37264U 10070A   21222.81633090 -.00000218  00000-0  00000-0 0  9991
2 37264   0.0120 162.9220 0005767 347.2357  73.2299  1.00275566 35423
KOREASAT 6              
1 37265U 10070B   21222.86915885 -.00000365  00000-0  00000-0 0  9995
2 37265   0.0112  43.1827 0001572  86.2308 259.0450  1.00272635 39009
COSMOS 2471 [GLONASS-K] 
1 37372U 11009A   21222.85327497 -.00000040  00000-0  00000-0 0  9992
2 37372  65.9416  13.7438 0015103 224.6869  17.4022  2.13062326 81345
BEIDOU 8                
1 37384U 11013A   21222.86462265 -.00000166  00000-0  00000-0 0  9993
2 37384  59.8478  57.3515 0054334 206.8128 124.7905  1.00290897 37903
RESOURCESAT-2           
1 37387U 11015A   21222.82157096 -.00000441  00000-0 -18124-3 0  9993
2 37387  98.6393 295.7694 0002796 241.8739 118.2179 14.21653644535028
YOUTHSAT                
1 37388U 11015B   21222.67014758  .00000002  00000-0  18606-4 0  9991
2 37388  98.3663 262.1298 0015604 139.5726 326.2484 14.24322775535363
X-SAT                   
1 37389U 11015C   21222.88468242 -.00000053  00000-0 -51708-5 0  9995
2 37389  98.3790 266.2213 0014937 138.4463 221.7851 14.24389780535996
INTELSAT NEW DAWN       
1 37392U 11016A   21222.75701047  .00000153  00000-0  00000-0 0  9992
2 37392   0.0132 210.6472 0001787 292.1780 121.9191  1.00268729 35520
YAHSAT 1A               
1 37393U 11016B   21222.83868858  .00000098  00000-0  00000-0 0  9994
2 37393   0.0158  87.7043 0002074  22.5551 203.6732  1.00273902 24635
MERIDIAN 4              
1 37398U 11018A   21222.34985263  .00000156  00000-0  10567-2 0  9993
2 37398  63.3240 332.9407 7337276 252.7534  17.8843  2.00646005 75221
